ONEWEB-0012             
1 44057U 19010A   23305.55099742  .00000095  00000+0  21617-3 0  9998
2 44057  87.9075  59.5937 0001641  65.6344 294.4958 13.16592095225423
ONEWEB-0010             
1 44058U 19010B   23305.57632050 -.00002830  00000+0 -74367-2 0  9996
2 44058  87.9070  59.5711 0001161  84.4014 275.7249 13.16606931225474
ONEWEB-0008             
1 44059U 19010C   23305.60166470  .00000099  00000+0  22545-3 0  9994
2 44059  87.9074  59.5625 0001905 103.0971 257.0373 13.16593467225592
ONEWEB-0007             
1 44060U 19010D   23305.63639255  .00002850  00000+0  75381-2 0  9997
2 44060  87.8977  90.0209 0001723  76.7985 283.3338 13.15521174225343
ONEWEB-0006             
1 44061U 19010E   23305.47008235  .00000145  00000+0  34971-3 0  9994
2 44061  87.8925  90.0507 0001324  92.2787 267.8495 13.15711211225375
ONEWEB-0011             
1 44062U 19010F   23305.45831294  .00000063  00000+0  13162-3 0  9990
2 44062  87.8958  90.0563 0001358  99.6167 260.5117 13.15776402225367
ONEWEB-0013             
1 45131U 20008A   23305.86649500 -.00000931  00000+0 -27440-2 0  9998
2 45131  87.9180 245.3239 0002685  64.3387 295.8017 13.09350242181415
ONEWEB-0017             
1 45132U 20008B   23305.78993017  .00000278  00000+0  75922-3 0  9996
2 45132  87.8915 226.5974 0001599  70.1067 290.0233 13.10369236183202
